{"type": "FeatureCollection", "features": [ {"type": "Feature", "properties": {"norad_id": 67009, "name": "STARLINK-36118", "group": "last-30-days", "lat": -69.16267318388967, "lon": -132.5324732895732, "alt_km": 302.8956214165937, "timestamp": "2025-12-20T16:47:35.026392+00:00", "meta": {"OBJECT_NAME": "STARLINK-36118", "OBJECT_ID": "2025-293G", "EPOCH": "2025-12-20T12:00:02.000160", "MEAN_MOTION": 15.91754259, "ECCENTRICITY": 0.0003814, "INCLINATION": 69.9937, "RA_OF_ASC_NODE": 301.2466, "ARG_OF_PERICENTER": 268.8292, "MEAN_ANOMALY": 303.3421, "EPHEMERIS_TYPE": 0, "CLASSIFICATION_TYPE": "U", "NORAD_CAT_ID": 67009, "ELEMENT_SET_NO": 999, "REV_AT_EPOCH": 136, "BSTAR": -0.003927, "MEAN_MOTION_DOT": -0.01284376, "MEAN_MOTION_DDOT": 0.00047857}, "tle": {"line1": "1 67009U 25293G   25354.50002315 -.01284376  47857-3 -39270-2 0  9998", "line2": "2 67009  69.9937 301.2466 0003814 268.8292 303.3421 15.91754259  1366"}}, "geometry": {"type": "Point", "coordinates": [-132.5324732895732, -69.16267318388967]}}, {"type": "Feature", "properties": {"norad_id": 67010, "name": "STARLINK-36189", "group": "last-30-days", "lat": -67.45050659547024, "lon": -120.6813203685558, "alt_km": 302.67041877815427, "timestamp": "2025-12-20T16:47:35.026403+00:00", "meta": {"OBJECT_NAME": "STARLINK-36189", "OBJECT_ID": "2025-293H", "EPOCH": "2025-12-20T12:00:02.000160", "MEAN_MOTION": 15.91854362, "ECCENTRICITY": 0.0003825, "INCLINATION": 69.9938, "RA_OF_ASC_NODE": 301.241, "ARG_OF_PERICENTER": 268.8334, "MEAN_ANOMALY": 307.9748, "EPHEMERIS_TYPE": 0, "CLASSIFICATION_TYPE": "U", "NORAD_CAT_ID": 67010, "ELEMENT_SET_NO": 999, "REV_AT_EPOCH": 142, "BSTAR": -0.0040254, "MEAN_MOTION_DOT": -0.01322965, "MEAN_MOTION_DDOT": 0.00050593}, "tle": {"line1": "1 67010U 25293H   25354.50002315 -.01322965  50593-3 -40254-2 0  9992", "line2": "2 67010  69.9938 301.2410 0003825 268.8334 307.9748 15.91854362  1422"}}, "geometry": {"type": "Point", "coordinates": [-120.6813203685558, -67.45050659547024]}}, {"type": "Feature", "properties": {"norad_id": 67011, "name": "STARLINK-36167", "group": "last-30-days", "lat": -68.53231939619963, "lon": -127.23865427223502, "alt_km": 302.75348239531013, "timestamp": "2025-12-20T16:47:35.026412+00:00", "meta": {"OBJECT_NAME": "STARLINK-36167", "OBJECT_ID": "2025-293J", "EPOCH": "2025-12-20T12:00:02.000160", "MEAN_MOTION": 15.91803478, "ECCENTRICITY": 0.0003863, "INCLINATION": 69.9933, "RA_OF_ASC_NODE": 301.2435, "ARG_OF_PERICENTER": 268.2732, "MEAN_ANOMALY": 305.8794, "EPHEMERIS_TYPE": 0, "CLASSIFICATION_TYPE": "U", "NORAD_CAT_ID": 67011, "ELEMENT_SET_NO": 999, "REV_AT_EPOCH": 136, "BSTAR": -0.003963, "MEAN_MOTION_DOT": -0.01299325, "MEAN_MOTION_DDOT": 0.00048913}, "tle": {"line1": "1 67011U 25293J   25354.50002315 -.01299325  48913-3 -39630-2 0  9995", "line2": "2 67011  69.9933 301.2435 0003863 268.2732 305.8794 15.91803478  1366"}}, "geometry": {"type": "Point", "coordinates": [-127.23865427223502, -68.53231939619963]}}, {"type": "Feature", "properties": {"norad_id": 67012, "name": "STARLINK-36175", "group": "last-30-days", "lat": -66.39801574975584, "lon": -115.84659990540115, "alt_km": 302.51988240606534, "timestamp": "2025-12-20T16:47:35.026422+00:00", "meta": {"OBJECT_NAME": "STARLINK-36175", "OBJECT_ID": "2025-293K", "EPOCH": "2025-12-20T12:00:02.000160", "MEAN_MOTION": 15.91895375, "ECCENTRICITY": 0.0003885, "INCLINATION": 69.9933, "RA_OF_ASC_NODE": 301.2383, "ARG_OF_PERICENTER": 270.6008, "MEAN_ANOMALY": 308.3516, "EPHEMERIS_TYPE": 0, "CLASSIFICATION_TYPE": "U", "NORAD_CAT_ID": 67012, "ELEMENT_SET_NO": 999, "REV_AT_EPOCH": 136, "BSTAR": -0.0040476, "MEAN_MOTION_DOT": -0.01332995, "MEAN_MOTION_DDOT": 0.00051324}, "tle": {"line1": "1 67012U 25293K   25354.50002315 -.01332995  51324-3 -40476-2 0  9997", "line2": "2 67012  69.9933 301.2383 0003885 270.6008 308.3516 15.91895375  1363"}}, "geometry": {"type": "Point", "coordinates": [-115.84659990540115, -66.39801574975584]}}, {"type": "Feature", "properties": {"norad_id": 67013, "name": "STARLINK-35856", "group": "last-30-days", "lat": -64.92973659280409, "lon": -110.50516376767543, "alt_km": 302.42984776560115, "timestamp": "2025-12-20T16:47:35.026432+00:00", "meta": {"OBJECT_NAME": "STARLINK-35856", "OBJECT_ID": "2025-293L", "EPOCH": "2025-12-20T12:00:02.000160", "MEAN_MOTION": 15.91940364, "ECCENTRICITY": 0.0003885, "INCLINATION": 69.9933, "RA_OF_ASC_NODE": 301.2348, "ARG_OF_PERICENTER": 270.0576, "MEAN_ANOMALY": 311.514, "EPHEMERIS_TYPE": 0, "CLASSIFICATION_TYPE": "U", "NORAD_CAT_ID": 67013, "ELEMENT_SET_NO": 999, "REV_AT_EPOCH": 136, "BSTAR": -0.0040849, "MEAN_MOTION_DOT": -0.01348239, "MEAN_MOTION_DDOT": 0.00052436}, "tle": {"line1": "1 67013U 25293L   25354.50002315 -.01348239  52436-3 -40849-2 0  9995", "line2": "2 67013  69.9933 301.2348 0003885 270.0576 311.5140 15.91940364  1367"}}, "geometry": {"type": "Point", "coordinates": [-110.50516376767543, -64.92973659280409]}}, {"type": "Feature", "properties": {"norad_id": 67014, "name": "STARLINK-36207", "group": "last-30-days", "lat": -63.40144910043705, "lon": -106.03888532916189, "alt_km": 302.3698384353165, "timestamp": "2025-12-20T16:47:35.026444+00:00", "meta": {"OBJECT_NAME": "STARLINK-36207", "OBJECT_ID": "2025-293M", "EPOCH": "2025-12-20T12:00:02.000160", "MEAN_MOTION": 15.91977902, "ECCENTRICITY": 0.0003832, "INCLINATION": 69.9936, "RA_OF_ASC_NODE": 301.2321, "ARG_OF_PERICENTER": 271.0925, "MEAN_ANOMALY": 312.9328, "EPHEMERIS_TYPE": 0, "CLASSIFICATION_TYPE": "U", "NORAD_CAT_ID": 67014, "ELEMENT_SET_NO": 999, "REV_AT_EPOCH": 142, "BSTAR": -0.0041081, "MEAN_MOTION_DOT": -0.01358409, "MEAN_MOTION_DDOT": 0.00053187}, "tle": {"line1": "1 67014U 25293M   25354.50002315 -.01358409  53187-3 -41081-2 0  9999", "line2": "2 67014  69.9936 301.2321 0003832 271.0925 312.9328 15.91977902  1421"}}, "geometry": {"type": "Point", "coordinates": [-106.03888532916189, -63.40144910043705]}}, {"type": "Feature", "properties": {"norad_id": 67015, "name": "STARLINK-36093", "group": "last-30-days", "lat": -60.04400960961729, "lon": -98.56864359484918, "alt_km": 302.2617855620301, "timestamp": "2025-12-20T16:47:35.026455+00:00", "meta": {"OBJECT_NAME": "STARLINK-36093", "OBJECT_ID": "2025-293N", "EPOCH": "2025-12-20T12:00:02.000160", "MEAN_MOTION": 15.92055247, "ECCENTRICITY": 0.0003817, "INCLINATION": 69.9933, "RA_OF_ASC_NODE": 301.2261, "ARG_OF_PERICENTER": 267.7237, "MEAN_ANOMALY": 321.127, "EPHEMERIS_TYPE": 0, "CLASSIFICATION_TYPE": "U", "NORAD_CAT_ID": 67015, "ELEMENT_SET_NO": 999, "REV_AT_EPOCH": 136, "BSTAR": -0.004127, "MEAN_MOTION_DOT": -0.01369964, "MEAN_MOTION_DDOT": 0.00054067}, "tle": {"line1": "1 67015U 25293N   25354.50002315 -.01369964  54067-3 -41270-2 0  9996", "line2": "2 67015  69.9933 301.2261 0003817 267.7237 321.1270 15.92055247  1364"}}, "geometry": {"type": "Point", "coordinates": [-98.56864359484918, -60.04400960961729]}}, {"type": "Feature", "properties": {"norad_id": 67016, "name": "STARLINK-36120", "group": "last-30-days", "lat": -61.88121382265131, "lon": -102.34019616916405, "alt_km": 302.3027645169277, "timestamp": "2025-12-20T16:47:35.026467+00:00", "meta": {"OBJECT_NAME": "STARLINK-36120", "OBJECT_ID": "2025-293P", "EPOCH": "2025-12-20T12:00:02.000160", "MEAN_MOTION": 15.92016588, "ECCENTRICITY": 0.0003855, "INCLINATION": 69.9934, "RA_OF_ASC_NODE": 301.2292, "ARG_OF_PERICENTER": 268.3897, "MEAN_ANOMALY": 317.8899, "EPHEMERIS_TYPE": 0, "CLASSIFICATION_TYPE": "U", "NORAD_CAT_ID": 67016, "ELEMENT_SET_NO": 999, "REV_AT_EPOCH": 136, "BSTAR": -0.0041012, "MEAN_MOTION_DOT": -0.01358847, "MEAN_MOTION_DDOT": 0.0005324}, "tle": {"line1": "1 67016U 25293P   25354.50002315 -.01358847  53240-3 -41012-2 0  9991", "line2": "2 67016  69.9934 301.2292 0003855 268.3897 317.8899 15.92016588  1365"}}, "geometry": {"type": "Point", "coordinates": [-102.34019616916405, -61.88121382265131]}}, {"type": "Feature", "properties": {"norad_id": 67017, "name": "STARLINK-35498", "group": "last-30-days", "lat": -58.251197352511845, "lon": -95.43211746078998, "alt_km": 302.14276555453216, "timestamp": "2025-12-20T16:47:35.026479+00:00", "meta": {"OBJECT_NAME": "STARLINK-35498", "OBJECT_ID": "2025-293Q", "EPOCH": "2025-12-20T12:00:02.000160", "MEAN_MOTION": 15.92095107, "ECCENTRICITY": 0.0003842, "INCLINATION": 69.9931, "RA_OF_ASC_NODE": 301.2233, "ARG_OF_PERICENTER": 268.5314, "MEAN_ANOMALY": 322.7044, "EPHEMERIS_TYPE": 0, "CLASSIFICATION_TYPE": "U", "NORAD_CAT_ID": 67017, "ELEMENT_SET_NO": 999, "REV_AT_EPOCH": 155, "BSTAR": -0.0041367, "MEAN_MOTION_DOT": -0.01375975, "MEAN_MOTION_DDOT": 0.00054527}, "tle": {"line1": "1 67017U 25293Q   25354.50002315 -.01375975  54527-3 -41367-2 0  9995", "line2": "2 67017  69.9931 301.2233 0003842 268.5314 322.7044 15.92095107  1552"}}, "geometry": {"type": "Point", "coordinates": [-95.43211746078998, -58.251197352511845]}}, {"type": "Feature", "properties": {"norad_id": 67018, "name": "STARLINK-36106", "group": "last-30-days", "lat": -56.37222403123271, "lon": -92.58001556268067, "alt_km": 302.0108699352895, "timestamp": "2025-12-20T16:47:35.026489+00:00", "meta": {"OBJECT_NAME": "STARLINK-36106", "OBJECT_ID": "2025-293R", "EPOCH": "2025-12-20T12:00:02.000160", "MEAN_MOTION": 15.92134351, "ECCENTRICITY": 0.000388, "INCLINATION": 69.9929, "RA_OF_ASC_NODE": 301.2201, "ARG_OF_PERICENTER": 269.525, "MEAN_ANOMALY": 324.1175, "EPHEMERIS_TYPE": 0, "CLASSIFICATION_TYPE": "U", "NORAD_CAT_ID": 67018, "ELEMENT_SET_NO": 999, "REV_AT_EPOCH": 147, "BSTAR": -0.0041456, "MEAN_MOTION_DOT": -0.01381688, "MEAN_MOTION_DDOT": 0.00054967}, "tle": {"line1": "1 67018U 25293R   25354.50002315 -.01381688  54967-3 -41456-2 0  9991", "line2": "2 67018  69.9929 301.2201 0003880 269.5250 324.1175 15.92134351  1474"}}, "geometry": {"type": "Point", "coordinates": [-92.58001556268067, -56.37222403123271]}}]}